[{"ORDINAL":"1","COMMENT":"GENERATED VIA SPACETRACK.ORG API","ORIGINATOR":"JSPOC","NORAD_CAT_ID":"7530","OBJECT_NAME":"OSCAR 7","OBJECT_TYPE":"PAYLOAD","CLASSIFICATION_TYPE":"U","INTLDES":"74089B","EPOCH":"2018-10-12 11:53:15","EPOCH_MICROSECONDS":"912384","MEAN_MOTION":"12.53634793","ECCENTRICITY":"0.0012409","INCLINATION":"101.7033","RA_OF_ASC_NODE":"251.1197","ARG_OF_PERICENTER":"107.2908","MEAN_ANOMALY":"6.7641","EPHEMERIS_TYPE":"0","ELEMENT_SET_NO":"999","REV_AT_EPOCH":"929","BSTAR":"6.091e-06","MEAN_MOTION_DOT":"-4.4e-07","MEAN_MOTION_DDOT":"0","FILE":"2344048","TLE_LINE0":"0 OSCAR 7","TLE_LINE1":"1  7530U 74089B   18285.49532306 -.00000044  00000-0  60910-5 0  9999","TLE_LINE2":"2  7530 101.7033 251.1197 0012409 107.2908   6.7641 12.53634793  9298","OBJECT_ID":"1974-089B","OBJECT_NUMBER":"7530","SEMIMAJOR_AXIS":"7827.465","PERIOD":"114.865","APOGEE":"1459.043","PERIGEE":"1439.617"},{"ORDINAL":"1","COMMENT":"GENERATED VIA SPACETRACK.ORG API","ORIGINATOR":"JSPOC","NORAD_CAT_ID":"10703","OBJECT_NAME":"OSCAR 8","OBJECT_TYPE":"PAYLOAD","CLASSIFICATION_TYPE":"U","INTLDES":"78026B","EPOCH":"2018-10-11 21:05:35","EPOCH_MICROSECONDS":"126592","MEAN_MOTION":"13.99241767","ECCENTRICITY":"0.000821","INCLINATION":"98.9541","RA_OF_ASC_NODE":"239.9806","ARG_OF_PERICENTER":"82.5355","MEAN_ANOMALY":"300.4144","EPHEMERIS_TYPE":"0","ELEMENT_SET_NO":"999","REV_AT_EPOCH":"7170","BSTAR":"0.00022264","MEAN_MOTION_DOT":"2.8e-06","MEAN_MOTION_DDOT":"0","FILE":"2344207","TLE_LINE0":"0 OSCAR 8","TLE_LINE1":"1 10703U 78026B   18284.87887878 +.00000280 +00000-0 +22264-3 0  9997","TLE_LINE2":"2 10703 098.9541 239.9806 0008210 082.5355 300.4144 13.99241767071705","OBJECT_ID":"1978-026B","OBJECT_NUMBER":"10703","SEMIMAJOR_AXIS":"7274.558","PERIOD":"102.912","APOGEE":"902.396","PERIGEE":"890.451"},{"ORDINAL":"1","COMMENT":"GENERATED VIA SPACETRACK.ORG API","ORIGINATOR":"JSPOC","NORAD_CAT_ID":"12997","OBJECT_NAME":"RADIO 3","OBJECT_TYPE":"PAYLOAD","CLASSIFICATION_TYPE":"U","INTLDES":"81120A","EPOCH":"2018-10-11 19:13:55","EPOCH_MICROSECONDS":"695648","MEAN_MOTION":"12.15819125","ECCENTRICITY":"0.0058331","INCLINATION":"82.9652","RA_OF_ASC_NODE":"20.689","ARG_OF_PERICENTER":"22.3083","MEAN_ANOMALY":"94.4678","EPHEMERIS_TYPE":"0","ELEMENT_SET_NO":"999","REV_AT_EPOCH":"63383","BSTAR":"-4.5075e-05","MEAN_MOTION_DOT":"5e-08","MEAN_MOTION_DDOT":"0","FILE":"2344207","TLE_LINE0":"0 RADIO 3","TLE_LINE1":"1 12997U 81120A   18284.80133907 +.00000005 +00000-0 -45075-4 0  9995","TLE_LINE2":"2 12997 082.9652 020.6890 0058331 022.3083 094.4678 12.15819125633831","OBJECT_ID":"1981-120A","OBJECT_NUMBER":"12997","SEMIMAJOR_AXIS":"7988.940","PERIOD":"118.438","APOGEE":"1657.405","PERIGEE":"1564.205"},{"ORDINAL":"1","COMMENT":"GENERATED VIA SPACETRACK.ORG API","ORIGINATOR":"JSPOC","NORAD_CAT_ID":"12998","OBJECT_NAME":"RADIO 8","OBJECT_TYPE":"PAYLOAD","CLASSIFICATION_TYPE":"U","INTLDES":"81120B","EPOCH":"2018-10-12 12:17:42","EPOCH_MICROSECONDS":"948096","MEAN_MOTION":"12.03153468","ECCENTRICITY":"0.0019617","INCLINATION":"82.9631","RA_OF_ASC_NODE":"199.4918","ARG_OF_PERICENTER":"94.1624","MEAN_ANOMALY":"328.4465","EPHEMERIS_TYPE":"0","ELEMENT_SET_NO":"999","REV_AT_EPOCH":"61711","BSTAR":"-0.00036792","MEAN_MOTION_DOT":"-2.1e-07","MEAN_MOTION_DDOT":"0","FILE":"2344034","TLE_LINE0":"0 RADIO 8","TLE_LINE1":"1 12998U 81120B   18285.51230264 -.00000021  00000-0 -36792-3 0  9993","TLE_LINE2":"2 12998  82.9631 199.4918 0019617  94.1624 328.4465 12.03153468617112","OBJECT_ID":"1981-120B","OBJECT_NUMBER":"12998","SEMIMAJOR_AXIS":"8044.909","PERIOD":"119.685","APOGEE":"1682.556","PERIGEE":"1650.992"},{"ORDINAL":"1","COMMENT":"GENERATED VIA SPACETRACK.ORG API","ORIGINATOR":"JSPOC","NORAD_CAT_ID":"12999","OBJECT_NAME":"RADIO 5","OBJECT_TYPE":"PAYLOAD","CLASSIFICATION_TYPE":"U","INTLDES":"81120C","EPOCH":"2018-10-11 19:26:32","EPOCH_MICROSECONDS":"449056","MEAN_MOTION":"12.05248759","ECCENTRICITY":"0.0014297","INCLINATION":"82.9599","RA_OF_ASC_NODE":"170.5721","ARG_OF_PERICENTER":"313.5271","MEAN_ANOMALY":"113.0182","EPHEMERIS_TYPE":"0","ELEMENT_SET_NO":"999","REV_AT_EPOCH":"61961","BSTAR":"0.00088644","MEAN_MOTION_DOT":"8.5e-07","MEAN_MOTION_DDOT":"0","FILE":"2344207","TLE_LINE0":"0 RADIO 5","TLE_LINE1":"1 12999U 81120C   18284.81009779 +.00000085 +00000-0 +88644-3 0  9992","TLE_LINE2":"2 12999 082.9599 170.5721 0014297 313.5271 113.0182 12.05248759619614","OBJECT_ID":"1981-120C","OBJECT_NUMBER":"12999","SEMIMAJOR_AXIS":"8035.582","PERIOD":"119.477","APOGEE":"1668.936","PERIGEE":"1645.959"},{"ORDINAL":"1","COMMENT":"GENERATED VIA SPACETRACK.ORG API","ORIGINATOR":"JSPOC","NORAD_CAT_ID":"13000","OBJECT_NAME":"RADIO 4","OBJECT_TYPE":"PAYLOAD","CLASSIFICATION_TYPE":"U","INTLDES":"81120D","EPOCH":"2018-10-12 05:22:53","EPOCH_MICROSECONDS":"645664","MEAN_MOTION":"12.06872378","ECCENTRICITY":"0.0018209","INCLINATION":"82.96","RA_OF_ASC_NODE":"149.6218","ARG_OF_PERICENTER":"184.0539","MEAN_ANOMALY":"279.3435","EPHEMERIS_TYPE":"0","ELEMENT_SET_NO":"999","REV_AT_EPOCH":"62207","BSTAR":"-0.0012255","MEAN_MOTION_DOT":"-9.8e-07","MEAN_MOTION_DDOT":"0","FILE":"2344013","TLE_LINE0":"0 RADIO 4","TLE_LINE1":"1 13000U 81120D   18285.22423201 -.00000098  00000-0 -12255-2 0  9992","TLE_LINE2":"2 13000  82.9600 149.6218 0018209 184.0539 279.3435 12.06872378622076","OBJECT_ID":"1981-120D","OBJECT_NUMBER":"13000","SEMIMAJOR_AXIS":"8028.374","PERIOD":"119.316","APOGEE":"1664.858","PERIGEE":"1635.620"},{"ORDINAL":"1","COMMENT":"GENERATED VIA SPACETRACK.ORG API","ORIGINATOR":"JSPOC","NORAD_CAT_ID":"13001","OBJECT_NAME":"RADIO 7","OBJECT_TYPE":"PAYLOAD","CLASSIFICATION_TYPE":"U","INTLDES":"81120E","EPOCH":"2018-10-11 19:27:55","EPOCH_MICROSECONDS":"464768","MEAN_MOTION":"12.08899607","ECCENTRICITY":"0.002451","INCLINATION":"82.9542","RA_OF_ASC_NODE":"118.9132","ARG_OF_PERICENTER":"49.2984","MEAN_ANOMALY":"86.4078","EPHEMERIS_TYPE":"0","ELEMENT_SET_NO":"999","REV_AT_EPOCH":"62445","BSTAR":"-0.00087341","MEAN_MOTION_DOT":"-6.9e-07","MEAN_MOTION_DDOT":"0","FILE":"2344207","TLE_LINE0":"0 RADIO 7","TLE_LINE1":"1 13001U 81120E   18284.81105862 -.00000069 +00000-0 -87341-3 0  9994","TLE_LINE2":"2 13001 082.9542 118.9132 0024510 049.2984 086.4078 12.08899607624454","OBJECT_ID":"1981-120E","OBJECT_NUMBER":"13001","SEMIMAJOR_AXIS":"8019.396","PERIOD":"119.116","APOGEE":"1660.916","PERIGEE":"1621.605"},{"ORDINAL":"1","COMMENT":"GENERATED VIA SPACETRACK.ORG API","ORIGINATOR":"JSPOC","NORAD_CAT_ID":"13002","OBJECT_NAME":"RADIO 6","OBJECT_TYPE":"PAYLOAD","CLASSIFICATION_TYPE":"U","INTLDES":"81120F","EPOCH":"2018-10-12 10:38:36","EPOCH_MICROSECONDS":"890592","MEAN_MOTION":"12.13795539","ECCENTRICITY":"0.005235","INCLINATION":"82.9623","RA_OF_ASC_NODE":"49.5306","ARG_OF_PERICENTER":"140.0464","MEAN_ANOMALY":"283.1608","EPHEMERIS_TYPE":"0","ELEMENT_SET_NO":"999","REV_AT_EPOCH":"63138","BSTAR":"-0.00042017","MEAN_MOTION_DOT":"-3e-07","MEAN_MOTION_DDOT":"0","FILE":"2344034","TLE_LINE0":"0 RADIO 6","TLE_LINE1":"1 13002U 81120F   18285.44348253 -.00000030  00000-0 -42017-3 0  9997","TLE_LINE2":"2 13002  82.9623  49.5306 0052350 140.0464 283.1608 12.13795539631383","OBJECT_ID":"1981-120F","OBJECT_NUMBER":"13002","SEMIMAJOR_AXIS":"7997.817","PERIOD":"118.636","APOGEE":"1661.550","PERIGEE":"1577.813"},{"ORDINAL":"1","COMMENT":"GENERATED VIA SPACETRACK.ORG API","ORIGINATOR":"JSPOC","NORAD_CAT_ID":"14129","OBJECT_NAME":"OSCAR 10","OBJECT_TYPE":"PAYLOAD","CLASSIFICATION_TYPE":"U","INTLDES":"83058B","EPOCH":"2018-10-12 05:10:21","EPOCH_MICROSECONDS":"89568","MEAN_MOTION":"2.05867134","ECCENTRICITY":"0.6021951","INCLINATION":"26.7898","RA_OF_ASC_NODE":"316.9775","ARG_OF_PERICENTER":"74.3103","MEAN_ANOMALY":"341.4415","EPHEMERIS_TYPE":"0","ELEMENT_SET_NO":"999","REV_AT_EPOCH":"23774","BSTAR":"0","MEAN_MOTION_DOT":"1e-07","MEAN_MOTION_DDOT":"0","FILE":"2343945","TLE_LINE0":"0 OSCAR 10","TLE_LINE1":"1 14129U 83058B   18285.21552187  .00000010  00000-0  00000+0 0  9996","TLE_LINE2":"2 14129  26.7898 316.9775 6021951  74.3103 341.4415  2.05867134237740","OBJECT_ID":"1983-058B","OBJECT_NUMBER":"14129","SEMIMAJOR_AXIS":"26102.202","PERIOD":"699.480","APOGEE":"35442.686","PERIGEE":"4005.449"},{"ORDINAL":"1","COMMENT":"GENERATED VIA SPACETRACK.ORG API","ORIGINATOR":"JSPOC","NORAD_CAT_ID":"14781","OBJECT_NAME":"OSCAR 11 (UoSAT 2)","OBJECT_TYPE":"PAYLOAD","CLASSIFICATION_TYPE":"U","INTLDES":"84021B","EPOCH":"2018-10-11 15:47:53","EPOCH_MICROSECONDS":"62656","MEAN_MOTION":"14.83035615","ECCENTRICITY":"0.0009855","INCLINATION":"97.639","RA_OF_ASC_NODE":"315.8402","ARG_OF_PERICENTER":"65.5877","MEAN_ANOMALY":"294.6365","EPHEMERIS_TYPE":"0","ELEMENT_SET_NO":"999","REV_AT_EPOCH":"86170","BSTAR":"1.6896e-05","MEAN_MOTION_DOT":"8.7e-07","MEAN_MOTION_DDOT":"0","FILE":"2343821","TLE_LINE0":"0 OSCAR 11 (UoSAT 2)","TLE_LINE1":"1 14781U 84021B   18284.65825304  .00000087  00000-0  16896-4 0  9991","TLE_LINE2":"2 14781  97.6390 315.8402 0009855  65.5877 294.6365 14.83035615861708","OBJECT_ID":"1984-021B","OBJECT_NUMBER":"14781","SEMIMAJOR_AXIS":"6997.895","PERIOD":"97.098","APOGEE":"626.656","PERIGEE":"612.864"},{"ORDINAL":"1","COMMENT":"GENERATED VIA SPACETRACK.ORG API","ORIGINATOR":"JSPOC","NORAD_CAT_ID":"16909","OBJECT_NAME":"JAS 1 (FUJI 1)","OBJECT_TYPE":"PAYLOAD","CLASSIFICATION_TYPE":"U","INTLDES":"86061B","EPOCH":"2018-10-11 19:46:12","EPOCH_MICROSECONDS":"499392","MEAN_MOTION":"12.44468548","ECCENTRICITY":"0.0011042","INCLINATION":"50.014","RA_OF_ASC_NODE":"138.0719","ARG_OF_PERICENTER":"224.314","MEAN_ANOMALY":"224.4583","EPHEMERIS_TYPE":"0","ELEMENT_SET_NO":"999","REV_AT_EPOCH":"46277","BSTAR":"1.7178e-05","MEAN_MOTION_DOT":"-9.5e-07","MEAN_MOTION_DDOT":"0","FILE":"2344207","TLE_LINE0":"0 JAS 1 (FUJI 1)","TLE_LINE1":"1 16909U 86061B   18284.82375578 -.00000095 +00000-0 +17178-4 0  9997","TLE_LINE2":"2 16909 050.0140 138.0719 0011042 224.3140 224.4583 12.44468548462770","OBJECT_ID":"1986-061B","OBJECT_NUMBER":"16909","SEMIMAJOR_AXIS":"7865.854","PERIOD":"115.712","APOGEE":"1496.404","PERIGEE":"1479.033"}]